*******************************************************************************
 Revised: April 12, 2021       Neptune Barycenter                             8
 
 Dynamical point:
 ---------------
 The location of the center-of-mass of the Neptune system. The point about 
 which Neptune and its satellites revolve. See 899 for Neptune center.
*******************************************************************************


*******************************************************************************
Ephemeris / WWW_USER Thu Aug 25 21:07:25 2022 Pasadena, USA      / Horizons
*******************************************************************************
Target body name: Neptune Barycenter (8)          {source: DE441}
Center body name: Solar System Barycenter (0)     {source: DE441}
Center-site name: BODY CENTER
*******************************************************************************
Start time      : A.D. 2022-Aug-25 00:00:00.0000 TDB
Stop  time      : A.D. 2022-Sep-24 00:00:00.0000 TDB
Step-size       : 1440 minutes
*******************************************************************************
Center geodetic : 0.00000000,0.00000000,0.0000000 {E-lon(deg),Lat(deg),Alt(km)}
Center cylindric: 0.00000000,0.00000000,0.0000000 {E-lon(deg),Dxy(km),Dz(km)}
Center radii    : (undefined)                                                  
Output units    : KM-S
Output type     : GEOMETRIC cartesian states
Output format   : 3 (position, velocity, LT, range, range-rate)
Reference frame : Ecliptic of J2000.0
*******************************************************************************
JDTDB
   X     Y     Z
   VX    VY    VZ
   LT    RG    RR
*******************************************************************************
$$SOE
2459844.500000000 = A.D. 2022-Sep-22 00:00:00.0000 TDB 
 X = 4.446201037799118E+09 Y =-4.876799738632640E+08 Z =-9.242438215884820E+07
 VX= 5.566304011836516E-01 VY= 5.435113636996055E+00 VZ=-1.247536190153582E-01
 LT= 1.492306178897453E+04 RG= 4.473821374602552E+09 RR=-3.669684574204198E-02
2459845.500000000 = A.D. 2022-Sep-23 00:00:00.0000 TDB 
 X = 4.446249106037230E+09 Y =-4.872103773453210E+08 Z =-9.243516035956794E+07
 VX= 5.560602946190883E-01 VY= 5.435176120202698E+00 VZ=-1.247417677804765E-01
 LT= 1.492305121341479E+04 RG= 4.473818204129502E+09 RR=-3.669373403449044E-02
2459846.500000000 = A.D. 2022-Sep-24 00:00:00.0000 TDB 
 X = 4.446297125017816E+09 Y =-4.867407754314206E+08 Z =-9.244593753628021E+07
 VX= 5.554901806853306E-01 VY= 5.435238543418338E+00 VZ=-1.247299151399957E-01
 LT= 1.492304063875190E+04 RG= 4.473815033925323E+09 RR=-3.669062192618505E-02
